[{"OBJECT_NAME":"ICEYE-X7","OBJECT_ID":"2020-068L","EPOCH":"2026-03-09T22:52:28.702272","MEAN_MOTION":15.29152508,"ECCENTRICITY":0.00068409,"INCLINATION":97.7412,"RA_OF_ASC_NODE":31.2076,"ARG_OF_PERICENTER":332.3045,"MEAN_ANOMALY":27.7829,"EPHEMERIS_TYPE":0,"CLASSIFICATION_TYPE":"U","NORAD_CAT_ID":46496,"ELEMENT_SET_NO":999,"REV_AT_EPOCH":29961,"BSTAR":0.0005654802,"MEAN_MOTION_DOT":0.00015947,"MEAN_MOTION_DDOT":0},{"OBJECT_NAME":"STARLINK-2521","OBJECT_ID":"2021-044L","EPOCH":"2026-03-09T12:11:30.980544","MEAN_MOTION":15.30195906,"ECCENTRICITY":0.00012672,"INCLINATION":53.1608,"RA_OF_ASC_NODE":114.7009,"ARG_OF_PERICENTER":91.586,"MEAN_ANOMALY":268.5286,"EPHEMERIS_TYPE":0,"CLASSIFICATION_TYPE":"U","NORAD_CAT_ID":48648,"ELEMENT_SET_NO":999,"REV_AT_EPOCH":26380,"BSTAR":2.6206278e-5,"MEAN_MOTION_DOT":4.17e-6,"MEAN_MOTION_DDOT":0}]
